ORBCOMM FM33            
1 25983U 99065D   26002.72558079  .00002702  00000+0  88356-3 0  9992
2 25983  45.0269 129.8982 0007156 340.7765  19.2814 14.40597850364837
ORBCOMM FM36            
1 25984U 99065E   26002.94693665  .00002111  00000+0  72650-3 0  9992
2 25984  45.0377 223.7988 0002192 226.4480 133.6187 14.38778414363182
ORBCOMM FM35            
1 25985U 99065F   26002.93505527  .00001899  00000+0  67290-3 0  9997
2 25985  45.0382 230.5206 0003955 327.6162  32.4444 14.37680658363528
ORBCOMM FM34            
1 25986U 99065G   26002.97192121  .00001488  00000+0  53809-3 0  9999
2 25986  45.0377 230.8214 0003458 277.2341  82.8114 14.37621514363644
ORBCOMM FM38            
1 33060U 08031A   25351.76850136  .00001404  00000+0  20080-3 0  9997
2 33060  48.4372 159.8035 0004435 120.0486 240.0870 14.82282580941971
ORBCOMM FM41            
1 33061U 08031B   26002.97196157  .00003760  00000+0  49615-3 0  9993
2 33061  48.4430  90.9511 0003867 179.4467 350.7776 14.81935402943856
ORBCOMM FM29            
1 33062U 08031C   26002.73672766  .00004715  00000+0  61301-3 0  9990
2 33062  48.4380  99.6098 0005509 173.9841 352.1573 14.82088300943732
ORBCOMM FM39            
1 33063U 08031D   26002.73650088  .00004121  00000+0  55963-3 0  9992
2 33063  48.4386 126.1537 0006209 140.3062 219.8308 14.80508853943355
